[{"OBJECT_NAME":"STARLINK-32707","OBJECT_ID":"2024-254S","EPOCH":"2026-03-09T05:41:23.610048","MEAN_MOTION":15.27592539,"ECCENTRICITY":0.00023246,"INCLINATION":43.0003,"RA_OF_ASC_NODE":18.9358,"ARG_OF_PERICENTER":257.6288,"MEAN_ANOMALY":102.4304,"EPHEMERIS_TYPE":0,"CLASSIFICATION_TYPE":"U","NORAD_CAT_ID":62478,"ELEMENT_SET_NO":999,"REV_AT_EPOCH":6758,"BSTAR":0.00091105331,"MEAN_MOTION_DOT":0.00024903,"MEAN_MOTION_DDOT":0},{"OBJECT_NAME":"PELICAN-6","OBJECT_ID":"2025-276AP","EPOCH":"2026-03-09T16:58:12.890496","MEAN_MOTION":15.2637798,"ECCENTRICITY":0.0003569,"INCLINATION":97.4276,"RA_OF_ASC_NODE":144.2072,"ARG_OF_PERICENTER":157.8575,"MEAN_ANOMALY":202.2819,"EPHEMERIS_TYPE":0,"CLASSIFICATION_TYPE":"U","NORAD_CAT_ID":66703,"ELEMENT_SET_NO":999,"REV_AT_EPOCH":1533,"BSTAR":0.0029725783,"MEAN_MOTION_DOT":0.00077979,"MEAN_MOTION_DDOT":0}]
